FENGYUN 1C DEB          
1 31263U 99025BMV 17344.72267805  .00001416  00000-0  62659-3 0  9999
2 31263  99.0034  77.8824 0048419 137.5425 222.9515 14.24220800551270
